SHIYAN-24C 02           
1 58651U 23206B   26068.89175597  .00002770  00000+0  23935-3 0  9991
2 58651  97.3985  41.8071 0003465  80.6641 279.4974 14.97980163120443
STARLINK-33968          
1 63883U 25094V   26068.85530523  .00003779  00000+0  32433-3 0  9994
2 63883  70.0024 234.2086 0003008 268.4679  91.6135 14.98334370 47223
